IRIDIUM 7               
1 24793U 97020B   26001.76850956  .00000803  00000+0  26901-3 0  9999
2 24793  86.3956  93.6986 0002110 105.1687 254.9743 14.36126718500397
IRIDIUM 5               
1 24795U 97020D   26001.44776381  .00007304  00000+0  56857-3 0  9991
2 24795  86.3878 352.1393 0105436 144.2655 216.5693 14.96692353515091
IRIDIUM 4               
1 24796U 97020E   26001.76658495  .00000802  00000+0  26404-3 0  9993
2 24796  86.3951  90.4425 0002035  99.0494 261.0934 14.37033114500985
IRIDIUM 914             
1 24836U 97030A   26001.76827345  .00000924  00000+0  28086-3 0  9994
2 24836  86.3936  98.4597 0000587  72.3894 287.7370 14.41092820635723
IRIDIUM 16              
1 24841U 97030F   26001.74923751  .00001060  00000+0  33780-3 0  9995
2 24841  86.4051 121.9089 0003913 115.2920 244.8684 14.38913662495558
IRIDIUM 911             
1 24842U 97030G   26001.75693054  .00001374  00000+0  36482-3 0  9997
2 24842  86.4475 120.4560 0015266 148.8228 211.3884 14.47928144503815
IRIDIUM 17              
1 24870U 97034B   26001.50893861  .00000980  00000+0  31737-3 0  9993
2 24870  86.3986 151.4282 0003620  89.0588 271.1025 14.38047435492085
IRIDIUM 920             
1 24871U 97034C   26001.73657313  .00001053  00000+0  31635-3 0  9998
2 24871  86.3997 130.1093 0012866 139.5580 220.6579 14.41754828495189
